{"fetchedAt":"2026-06-29T18:07:57.466Z","satellites":[{"id":"51622","name":"ONEWEB-0410","constellationId":"oneweb","omm":{"OBJECT_NAME":"ONEWEB-0410","OBJECT_ID":"2022-012A","EPOCH":"2026-06-29T12:27:16.456608","MEAN_MOTION":13.17649763,"ECCENTRICITY":0.0002626,"INCLINATION":87.9143,"RA_OF_ASC_NODE":3.4044,"ARG_OF_PERICENTER":61.5159,"MEAN_ANOMALY":298.6237,"EPHEMERIS_TYPE":0,"CLASSIFICATION_TYPE":"U","NORAD_CAT_ID":51622,"ELEMENT_SET_NO":999,"REV_AT_EPOCH":21532,"BSTAR":0.00010718,"MEAN_MOTION_DOT":5.4e-7,"MEAN_MOTION_DDOT":0}},{"id":"51623","name":"ONEWEB-0411","constellationId":"oneweb","omm":{"OBJECT_NAME":"ONEWEB-0411","OBJECT_ID":"2022-012B","EPOCH":"2026-06-29T12:51:48.864672","MEAN_MOTION":13.10370504,"ECCENTRICITY":0.0001947,"INCLINATION":87.8825,"RA_OF_ASC_NODE":33.8072,"ARG_OF_PERICENTER":101.351,"MEAN_ANOMALY":258.7836,"EPHEMERIS_TYPE":0,"CLASSIFICATION_TYPE":"U","NORAD_CAT_ID":51623,"ELEMENT_SET_NO":999,"REV_AT_EPOCH":21090,"BSTAR":-0.0010415,"MEAN_MOTION_DOT":-0.00000351,"MEAN_MOTION_DDOT":0}},{"id":"51624","name":"ONEWEB-0415","constellationId":"oneweb","omm":{"OBJECT_NAME":"ONEWEB-0415","OBJECT_ID":"2022-012C","EPOCH":"2026-06-29T12:46:55.647264","MEAN_MOTION":13.10371703,"ECCENTRICITY":0.0002055,"INCLINATION":87.8821,"RA_OF_ASC_NODE":33.8067,"ARG_OF_PERICENTER":91.1089,"MEAN_ANOMALY":269.0274,"EPHEMERIS_TYPE":0,"CLASSIFICATION_TYPE":"U","NORAD_CAT_ID":51624,"ELEMENT_SET_NO":999,"REV_AT_EPOCH":21090,"BSTAR":-0.0011441,"MEAN_MOTION_DOT":-0.00000387,"MEAN_MOTION_DDOT":0}},{"id":"51625","name":"ONEWEB-0416","constellationId":"oneweb","omm":{"OBJECT_NAME":"ONEWEB-0416","OBJECT_ID":"2022-012D","EPOCH":"2026-06-29T13:04:01.476192","MEAN_MOTION":13.10373637,"ECCENTRICITY":0.0002167,"INCLINATION":87.8819,"RA_OF_ASC_NODE":33.8219,"ARG_OF_PERICENTER":89.4094,"MEAN_ANOMALY":270.7282,"EPHEMERIS_TYPE":0,"CLASSIFICATION_TYPE":"U","NORAD_CAT_ID":51625,"ELEMENT_SET_NO":999,"REV_AT_EPOCH":21094,"BSTAR":-0.0016853,"MEAN_MOTION_DOT":-0.00000576,"MEAN_MOTION_DDOT":0}},{"id":"51626","name":"ONEWEB-0422","constellationId":"oneweb","omm":{"OBJECT_NAME":"ONEWEB-0422","OBJECT_ID":"2022-012E","EPOCH":"2026-06-29T12:41:51.273888","MEAN_MOTION":13.17650256,"ECCENTRICITY":0.0001373,"INCLINATION":87.9141,"RA_OF_ASC_NODE":3.4034,"ARG_OF_PERICENTER":105.6569,"MEAN_ANOMALY":254.4714,"EPHEMERIS_TYPE":0,"CLASSIFICATION_TYPE":"U","NORAD_CAT_ID":51626,"ELEMENT_SET_NO":999,"REV_AT_EPOCH":21543,"BSTAR":0.000050083,"MEAN_MOTION_DOT":3.2e-7,"MEAN_MOTION_DDOT":0}},{"id":"51627","name":"ONEWEB-0423","constellationId":"oneweb","omm":{"OBJECT_NAME":"ONEWEB-0423","OBJECT_ID":"2022-012F","EPOCH":"2026-06-29T12:32:06.904032","MEAN_MOTION":13.17651781,"ECCENTRICITY":0.0001855,"INCLINATION":87.9137,"RA_OF_ASC_NODE":3.4096,"ARG_OF_PERICENTER":86.5288,"MEAN_ANOMALY":273.6056,"EPHEMERIS_TYPE":0,"CLASSIFICATION_TYPE":"U","NORAD_CAT_ID":51627,"ELEMENT_SET_NO":999,"REV_AT_EPOCH":21532,"BSTAR":0.00015708,"MEAN_MOTION_DOT":7.4e-7,"MEAN_MOTION_DDOT":0}},{"id":"51628","name":"ONEWEB-0425","constellationId":"oneweb","omm":{"OBJECT_NAME":"ONEWEB-0425","OBJECT_ID":"2022-012G","EPOCH":"2026-06-29T13:18:41.276160","MEAN_MOTION":13.1037193,"ECCENTRICITY":0.0002036,"INCLINATION":87.8826,"RA_OF_ASC_NODE":33.8035,"ARG_OF_PERICENTER":75.1448,"MEAN_ANOMALY":284.9904,"EPHEMERIS_TYPE":0,"CLASSIFICATION_TYPE":"U","NORAD_CAT_ID":51628,"ELEMENT_SET_NO":999,"REV_AT_EPOCH":21094,"BSTAR":-0.0011312,"MEAN_MOTION_DOT":-0.00000382,"MEAN_MOTION_DDOT":0}},{"id":"51629","name":"ONEWEB-0428","constellationId":"oneweb","omm":{"OBJECT_NAME":"ONEWEB-0428","OBJECT_ID":"2022-012H","EPOCH":"2026-06-29T12:49:22.221408","MEAN_MOTION":13.10371892,"ECCENTRICITY":0.0001813,"INCLINATION":87.8817,"RA_OF_ASC_NODE":33.8144,"ARG_OF_PERICENTER":85.4229,"MEAN_ANOMALY":274.7106,"EPHEMERIS_TYPE":0,"CLASSIFICATION_TYPE":"U","NORAD_CAT_ID":51629,"ELEMENT_SET_NO":999,"REV_AT_EPOCH":21090,"BSTAR":-0.0013449,"MEAN_MOTION_DOT":-0.00000457,"MEAN_MOTION_DDOT":0}},{"id":"51630","name":"ONEWEB-0431","constellationId":"oneweb","omm":{"OBJECT_NAME":"ONEWEB-0431","OBJECT_ID":"2022-012J","EPOCH":"2026-06-29T12:05:09.572064","MEAN_MOTION":13.10374026,"ECCENTRICITY":0.0002008,"INCLINATION":87.8823,"RA_OF_ASC_NODE":33.8128,"ARG_OF_PERICENTER":102.8766,"MEAN_ANOMALY":257.2585,"EPHEMERIS_TYPE":0,"CLASSIFICATION_TYPE":"U","NORAD_CAT_ID":51630,"ELEMENT_SET_NO":999,"REV_AT_EPOCH":21095,"BSTAR":0.0019955,"MEAN_MOTION_DOT":0.00000709,"MEAN_MOTION_DDOT":0}},{"id":"51631","name":"ONEWEB-0434","constellationId":"oneweb","omm":{"OBJECT_NAME":"ONEWEB-0434","OBJECT_ID":"2022-012K","EPOCH":"2026-06-29T13:23:44.672352","MEAN_MOTION":13.10370686,"ECCENTRICITY":0.0002019,"INCLINATION":87.8828,"RA_OF_ASC_NODE":33.828,"ARG_OF_PERICENTER":66.3152,"MEAN_ANOMALY":293.8187,"EPHEMERIS_TYPE":0,"CLASSIFICATION_TYPE":"U","NORAD_CAT_ID":51631,"ELEMENT_SET_NO":999,"REV_AT_EPOCH":21094,"BSTAR":-0.00062984,"MEAN_MOTION_DOT":-0.00000207,"MEAN_MOTION_DDOT":0}},{"id":"51632","name":"ONEWEB-0435","constellationId":"oneweb","omm":{"OBJECT_NAME":"ONEWEB-0435","OBJECT_ID":"2022-012L","EPOCH":"2026-06-29T13:33:17.873280","MEAN_MOTION":13.10375152,"ECCENTRICITY":0.0001619,"INCLINATION":87.8823,"RA_OF_ASC_NODE":33.8115,"ARG_OF_PERICENTER":93.5992,"MEAN_ANOMALY":266.5321,"EPHEMERIS_TYPE":0,"CLASSIFICATION_TYPE":"U","NORAD_CAT_ID":51632,"ELEMENT_SET_NO":999,"REV_AT_EPOCH":21093,"BSTAR":-0.000034701,"MEAN_MOTION_DOT":1e-8,"MEAN_MOTION_DDOT":0}},{"id":"51633","name":"ONEWEB-0436","constellationId":"oneweb","omm":{"OBJECT_NAME":"ONEWEB-0436","OBJECT_ID":"2022-012M","EPOCH":"2026-06-29T12:19:58.486368","MEAN_MOTION":13.17650065,"ECCENTRICITY":0.0001726,"INCLINATION":87.9141,"RA_OF_ASC_NODE":3.3935,"ARG_OF_PERICENTER":95.7814,"MEAN_ANOMALY":264.3514,"EPHEMERIS_TYPE":0,"CLASSIFICATION_TYPE":"U","NORAD_CAT_ID":51633,"ELEMENT_SET_NO":999,"REV_AT_EPOCH":21530,"BSTAR":0.000057222,"MEAN_MOTION_DOT":3.5e-7,"MEAN_MOTION_DDOT":0}},{"id":"51634","name":"ONEWEB-0438","constellationId":"oneweb","omm":{"OBJECT_NAME":"ONEWEB-0438","OBJECT_ID":"2022-012N","EPOCH":"2026-06-29T13:11:20.785632","MEAN_MOTION":13.10375657,"ECCENTRICITY":0.0001962,"INCLINATION":87.8823,"RA_OF_ASC_NODE":33.8183,"ARG_OF_PERICENTER":80.0868,"MEAN_ANOMALY":280.048,"EPHEMERIS_TYPE":0,"CLASSIFICATION_TYPE":"U","NORAD_CAT_ID":51634,"ELEMENT_SET_NO":999,"REV_AT_EPOCH":21096,"BSTAR":-0.0016126,"MEAN_MOTION_DOT":-0.0000055,"MEAN_MOTION_DDOT":0}},{"id":"51635","name":"ONEWEB-0439","constellationId":"oneweb","omm":{"OBJECT_NAME":"ONEWEB-0439","OBJECT_ID":"2022-012P","EPOCH":"2026-06-29T13:16:14.156832","MEAN_MOTION":13.10375403,"ECCENTRICITY":0.0001801,"INCLINATION":87.882,"RA_OF_ASC_NODE":33.8051,"ARG_OF_PERICENTER":82.4233,"MEAN_ANOMALY":277.7099,"EPHEMERIS_TYPE":0,"CLASSIFICATION_TYPE":"U","NORAD_CAT_ID":51635,"ELEMENT_SET_NO":999,"REV_AT_EPOCH":21094,"BSTAR":-0.001257,"MEAN_MOTION_DOT":-0.00000426,"MEAN_MOTION_DDOT":0}},{"id":"51636","name":"ONEWEB-0442","constellationId":"oneweb","omm":{"OBJECT_NAME":"ONEWEB-0442","OBJECT_ID":"2022-012Q","EPOCH":"2026-06-29T12:09:04.411584","MEAN_MOTION":13.17649867,"ECCENTRICITY":0.0002165,"INCLINATION":87.9131,"RA_OF_ASC_NODE":3.4269,"ARG_OF_PERICENTER":75.3047,"MEAN_ANOMALY":284.8324,"EPHEMERIS_TYPE":0,"CLASSIFICATION_TYPE":"U","NORAD_CAT_ID":51636,"ELEMENT_SET_NO":999,"REV_AT_EPOCH":21529,"BSTAR":0.00010777,"MEAN_MOTION_DOT":5.5e-7,"MEAN_MOTION_DDOT":0}}]}