0 ONEWEB-0435
1 51632U 22012L   26180.56479020  .00000001  00000-0 -34701-4 0  9995
2 51632  87.8823  33.8115 0001619  93.5992 266.5321 13.10375152210938
0 ONEWEB-0434
1 51631U 22012K   26180.55815593 -.00000207  00000-0 -62984-3 0  9994
2 51631  87.8828  33.8280 0002019  66.3152 293.8187 13.10370686210947
0 ONEWEB-0425
1 51628U 22012G   26180.55464440 -.00000382  00000-0 -11312-2 0  9993
2 51628  87.8826  33.8035 0002036  75.1448 284.9904 13.10371930210945
0 ONEWEB-0439
1 51635U 22012P   26180.55294163 -.00000426  00000-0 -12570-2 0  9990
2 51635  87.8820  33.8051 0001801  82.4233 277.7099 13.10375403210941
0 ONEWEB-0438
1 51634U 22012N   26180.54954613 -.00000550  00000-0 -16126-2 0  9990
2 51634  87.8823  33.8183 0001962  80.0868 280.0480 13.10375657210969
0 ONEWEB-0416
1 51625U 22012D   26180.54446153 -.00000576  00000-0 -16853-2 0  9990
2 51625  87.8819  33.8219 0002167  89.4094 270.7282 13.10373637210946
0 ONEWEB-0411
1 51623U 22012B   26180.53598223 -.00000351  00000-0 -10415-2 0  9992
2 51623  87.8825  33.8072 0001947 101.3510 258.7836 13.10370504210907
0 ONEWEB-0428
1 51629U 22012H   26180.53428497 -.00000457  00000-0 -13449-2 0  9990
2 51629  87.8817  33.8144 0001813  85.4229 274.7106 13.10371892210904
0 ONEWEB-0415
1 51624U 22012C   26180.53258851 -.00000387  00000-0 -11441-2 0  9992
2 51624  87.8821  33.8067 0002055  91.1089 269.0274 13.10371703210909
0 ONEWEB-0422
1 51626U 22012E   26180.52906567  .00000032  00000-0  50083-4 0  9999
2 51626  87.9141   3.4034 0001373 105.6569 254.4714 13.17650256215430
0 ONEWEB-0423
1 51627U 22012F   26180.52230213  .00000074  00000-0  15708-3 0  9998
2 51627  87.9137   3.4096 0001855  86.5288 273.6056 13.17651781215328
0 ONEWEB-0410
1 51622U 22012A   26180.51894047  .00000054  00000-0  10718-3 0  9997
2 51622  87.9143   3.4044 0002626  61.5159 298.6237 13.17649763215325
0 ONEWEB-0436
1 51633U 22012M   26180.51387137  .00000035  00000-0  57222-4 0  9997
2 51633  87.9141   3.3935 0001726  95.7814 264.3514 13.17650065215303
0 ONEWEB-0442
1 51636U 22012Q   26180.50630106  .00000055  00000-0  10777-3 0  9991
2 51636  87.9131   3.4269 0002165  75.3047 284.8324 13.17649867215298
0 ONEWEB-0431
1 51630U 22012J   26180.50358301  .00000709  00000-0  19955-2 0  9991
2 51630  87.8823  33.8128 0002008 102.8766 257.2585 13.10374026210956
